[{"OBJECT_NAME":"239ALFEROV (RS61S)","OBJECT_ID":"2025-155F","EPOCH":"2026-03-09T21:46:33.382848","MEAN_MOTION":15.29933217,"ECCENTRICITY":0.00084878,"INCLINATION":97.4469,"RA_OF_ASC_NODE":37.6373,"ARG_OF_PERICENTER":151.5904,"MEAN_ANOMALY":208.58,"EPHEMERIS_TYPE":0,"CLASSIFICATION_TYPE":"U","NORAD_CAT_ID":64881,"ELEMENT_SET_NO":999,"REV_AT_EPOCH":6561,"BSTAR":0.00067233359,"MEAN_MOTION_DOT":0.00019457,"MEAN_MOTION_DDOT":0},{"OBJECT_NAME":"STARLINK-34905","OBJECT_ID":"2025-176E","EPOCH":"2026-03-09T12:41:22.199424","MEAN_MOTION":15.30183078,"ECCENTRICITY":0.00010764,"INCLINATION":53.1576,"RA_OF_ASC_NODE":153.6311,"ARG_OF_PERICENTER":82.6433,"MEAN_ANOMALY":277.469,"EPHEMERIS_TYPE":0,"CLASSIFICATION_TYPE":"U","NORAD_CAT_ID":65202,"ELEMENT_SET_NO":999,"REV_AT_EPOCH":3309,"BSTAR":0.00078295387,"MEAN_MOTION_DOT":0.00022889,"MEAN_MOTION_DDOT":0}]
